[{"OBJECT_NAME":"ONEWEB-0695","OBJECT_ID":"2024-188J","EPOCH":"2026-03-09T22:19:45.175008","MEAN_MOTION":13.11415995,"ECCENTRICITY":0.00023513,"INCLINATION":87.8858,"RA_OF_ASC_NODE":40.8132,"ARG_OF_PERICENTER":77.5095,"MEAN_ANOMALY":282.6296,"EPHEMERIS_TYPE":0,"CLASSIFICATION_TYPE":"U","NORAD_CAT_ID":61602,"ELEMENT_SET_NO":999,"REV_AT_EPOCH":7145,"BSTAR":-0.00044875513,"MEAN_MOTION_DOT":-1.46e-6,"MEAN_MOTION_DDOT":0},{"OBJECT_NAME":"DELTA 2 R\/B(1)","OBJECT_ID":"1998-002B","EPOCH":"2026-03-09T16:16:49.610208","MEAN_MOTION":13.62764133,"ECCENTRICITY":0.03553022,"INCLINATION":26.8821,"RA_OF_ASC_NODE":191.8311,"ARG_OF_PERICENTER":58.2661,"MEAN_ANOMALY":77.5481,"EPHEMERIS_TYPE":0,"CLASSIFICATION_TYPE":"U","NORAD_CAT_ID":25135,"ELEMENT_SET_NO":999,"REV_AT_EPOCH":40329,"BSTAR":3.3002316e-5,"MEAN_MOTION_DOT":1.48e-6,"MEAN_MOTION_DDOT":0}]
